NORAD_CAT_ID,OBJECT_NAME,OBJECT_TYPE,EPOCH,MEAN_MOTION,ECCENTRICITY,INCLINATION,RA_OF_ASC_NODE,ARG_OF_PERICENTER,MEAN_ANOMALY,BSTAR,MEAN_MOTION_DOT,MEAN_MOTION_DDOT,TLE_LINE0,TLE_LINE1,TLE_LINE2,SEMIMAJOR_AXIS,PERIOD,APOGEE,PERIGEE,DECAYED
52566.0,STARLINK-3938,PAYLOAD,2023-10-18 10:16:29,15.08841383,0.0001713,53.2156,94.3441,86.6035,273.5153,8.6026e-05,1.081e-05,0.0,0 STARLINK-3938,1 52566U 22051AK  23291.42812166  .00001081  00000-0  86026-4 0  9997,2 52566  53.2156  94.3441 0001713  86.6035 273.5153 15.08841383 79613,6917.876,95.437,540.926,538.556,0.0
52566.0,STARLINK-3938,PAYLOAD,2023-10-18 13:27:16,15.08840531,0.0001749,53.2157,93.7494,88.8207,271.2986,6.8257e-05,7.98e-06,0.0,0 STARLINK-3938,1 52566U 22051AK  23291.56060197  .00000798  00000-0  68257-4 0  9991,2 52566  53.2157  93.7494 0001749  88.8207 271.2986 15.08840531 79566,6917.879,95.438,540.954,538.534,0.0
52566.0,STARLINK-3938,PAYLOAD,2023-10-19 10:07:16,15.08852323,0.0002421,53.2147,89.8843,78.015,282.1113,6.5437e-05,7.54e-06,0.0,0 STARLINK-3938,1 52566U 22051AK  23292.42171720  .00000754  00000-0  65437-4 0  9991,2 52566  53.2147  89.8843 0002421  78.0150 282.1113 15.08852323 79694,6917.843,95.437,541.383,538.033,0.0
52566.0,STARLINK-3938,PAYLOAD,2023-10-19 19:39:35,15.08847774,0.000167,53.2151,88.1001,80.8712,279.2469,0.00018162,2.604e-05,0.0,0 STARLINK-3938,1 52566U 22051AK  23292.81915720  .00002604  00000-0  18162-3 0  9998,2 52566  53.2151  88.1001 0001670  80.8712 279.2469 15.08847774 79827,6917.857,95.437,540.877,538.566,0.0
52566.0,STARLINK-3938,PAYLOAD,2023-10-20 03:36:31,15.08834131,0.0002642,53.2092,86.6141,95.7849,264.3444,0.000179,2.561e-05,0.0,0 STARLINK-3938,1 52566U 22051AK  23293.15036608  .00002561  00000-0  17900-3 0  9996,2 52566  53.2092  86.6141 0002642  95.7849 264.3444 15.08834131 79871,6917.898,95.438,541.591,537.936,0.0
52566.0,STARLINK-3938,PAYLOAD,2023-10-20 09:58:03,15.08843521,0.0002116,53.2099,85.4236,85.2299,274.8934,-7.5191e-05,-1.485e-05,0.0,0 STARLINK-3938,1 52566U 22051AK  23293.41531980 -.00001485  00000-0 -75191-4 0  9991,2 52566  53.2099  85.4236 0002116  85.2299 274.8934 15.08843521 79849,6917.87,95.437,541.198,538.271,0.0
52566.0,STARLINK-3938,PAYLOAD,2023-10-21 12:59:37,15.08844435,0.0002014,53.2145,80.3697,84.0145,276.1077,-1.3911e-05,-5.1e-06,0.0,0 STARLINK-3938,1 52566U 22051AK  23294.54140140 -.00000510  00000-0 -13911-4 0  9990,2 52566  53.2145  80.3697 0002014  84.0145 276.1077 15.08844435 80019,6917.867,95.437,541.125,538.339,0.0
52566.0,STARLINK-3938,PAYLOAD,2023-10-21 16:10:23,15.08846337,0.0001254,53.2153,79.7757,84.4293,275.6842,0.00017083,2.432e-05,0.0,0 STARLINK-3938,1 52566U 22051AK  23294.67387932  .00002432  00000-0  17083-3 0  9992,2 52566  53.2153  79.7757 0001254  84.4293 275.6842 15.08846337 80107,6917.861,95.437,540.594,538.859,0.0
52566.0,STARLINK-3938,PAYLOAD,2023-10-22 09:39:38,15.08835542,0.0002091,53.2144,76.5024,86.5125,273.6106,9.5781e-05,1.236e-05,0.0,0 STARLINK-3938,1 52566U 22051AK  23295.40252843  .00001236  00000-0  95781-4 0  9999,2 52566  53.2144  76.5024 0002091  86.5125 273.6106 15.08835542 80215,6917.894,95.438,541.206,538.312,0.0
52566.0,STARLINK-3938,PAYLOAD,2023-10-22 14:25:48,15.08829122,0.0001513,53.2156,75.6079,100.8327,259.2836,9.308e-05,1.193e-05,0.0,0 STARLINK-3938,1 52566U 22051AK  23295.60125307  .00001193  00000-0  93080-4 0  9997,2 52566  53.2156  75.6079 0001513 100.8327 259.2836 15.08829122 80172,6917.914,95.438,540.825,538.732,0.0
52566.0,STARLINK-3938,PAYLOAD,2023-10-22 16:01:11,15.08831239,0.0001331,53.2163,75.3126,86.6464,273.468,4.4225e-06,-2.18e-06,0.0,0 STARLINK-3938,1 52566U 22051AK  23295.66749058 -.00000218  00000-0  44225-5 0  9994,2 52566  53.2163  75.3126 0001331  86.6464 273.4680 15.08831239 80189,6917.907,95.438,540.693,538.851,0.0
52566.0,STARLINK-3938,PAYLOAD,2023-10-24 12:31:56,15.08888447,0.0001972,53.2169,66.9852,70.0769,290.0436,-0.00131,-0.00021104,0.0,0 STARLINK-3938,1 52566U 22051AK  23297.52217863 -.00021104  00000-0 -13100-2 0  9998,2 52566  53.2169  66.9852 0001972  70.0769 290.0436 15.08888447 80539,6917.732,95.434,540.961,538.233,0.0
52566.0,STARLINK-3938,PAYLOAD,2023-10-25 12:22:45,15.0884155,0.0001514,53.2185,62.5258,87.2555,272.8611,8.1516e-05,1.01e-05,0.0,0 STARLINK-3938,1 52566U 22051AK  23298.51580826  .00001010  00000-0  81516-4 0  9990,2 52566  53.2185  62.5258 0001514  87.2555 272.8611 15.08841550 80687,6917.876,95.437,540.788,538.693,0.0
52566.0,STARLINK-3938,PAYLOAD,2023-10-26 13:48:56,15.08839755,0.0001597,53.2194,57.7703,86.6571,273.4604,4.2002e-05,3.81e-06,0.0,0 STARLINK-3938,1 52566U 22051AK  23299.57565009  .00000381  00000-0  42002-4 0  9990,2 52566  53.2194  57.7703 0001597  86.6571 273.4604 15.08839755 80773,6917.881,95.438,540.851,538.641,0.0
52566.0,STARLINK-3938,PAYLOAD,2023-10-26 15:24:19,15.0884353,0.0001781,53.2184,57.4699,81.5659,278.5535,3.786e-05,3.15e-06,0.0,0 STARLINK-3938,1 52566U 22051AK  23299.64188833  .00000315  00000-0  37860-4 0  9997,2 52566  53.2184  57.4699 0001781  81.5659 278.5535 15.08843530 80785,6917.87,95.437,540.967,538.503,0.0
52566.0,STARLINK-3938,PAYLOAD,2023-10-27 00:56:37,15.08843207,0.000138,53.2182,55.6871,89.2917,270.8233,0.00015245,2.139e-05,0.0,0 STARLINK-3938,1 52566U 22051AK  23300.03932691  .00002139  00000-0  15245-3 0  9990,2 52566  53.2182  55.6871 0001380  89.2917 270.8233 15.08843207 80918,6917.871,95.437,540.69,538.781,0.0
52566.0,STARLINK-3938,PAYLOAD,2023-10-27 12:04:19,15.08845799,0.0001479,53.2186,53.6049,86.9688,273.1474,0.00018451,2.65e-05,0.0,0 STARLINK-3938,1 52566U 22051AK  23300.50300623  .00002650  00000-0  18451-3 0  9996,2 52566  53.2186  53.6049 0001479  86.9688 273.1474 15.08845799 80916,6917.863,95.437,540.751,538.705,0.0
52566.0,STARLINK-3938,PAYLOAD,2023-10-27 16:50:28,15.08855072,0.0001728,53.2186,52.7119,89.0935,271.0255,0.00024427,3.603e-05,0.0,0 STARLINK-3938,1 52566U 22051AK  23300.70172119  .00003603  00000-0  24427-3 0  9994,2 52566  53.2186  52.7119 0001728  89.0935 271.0255 15.08855072 81011,6917.834,95.437,540.895,538.504,0.0
52566.0,STARLINK-3938,PAYLOAD,2023-10-28 00:47:25,15.08833815,0.0002332,53.2199,51.2272,78.6551,281.4703,-6.3298e-05,-1.295e-05,0.0,0 STARLINK-3938,1 52566U 22051AK  23301.03293329 -.00001295  00000-0 -63298-4 0  9995,2 52566  53.2199  51.2272 0002332  78.6551 281.4703 15.08833815 81068,6917.899,95.438,541.378,538.151,0.0
52566.0,STARLINK-3938,PAYLOAD,2023-10-28 13:30:30,15.08827904,0.0001429,53.2167,48.8499,76.4837,283.6314,-0.00012771,-2.319e-05,0.0,0 STARLINK-3938,1 52566U 22051AK  23301.56285636 -.00002319  00000-0 -12771-3 0  9992,2 52566  53.2167  48.8499 0001429  76.4837 283.6314 15.08827904 81070,6917.917,95.438,540.771,538.794,0.0
52566.0,STARLINK-3938,PAYLOAD,2023-10-28 15:05:53,15.0883748,0.0001417,53.2175,48.5495,81.5435,278.5718,3.8891e-05,3.31e-06,0.0,0 STARLINK-3938,1 52566U 22051AK  23301.62909192  .00000331  00000-0  38891-4 0  9991,2 52566  53.2175  48.5495 0001417  81.5435 278.5718 15.08837480 81082,6917.888,95.438,540.733,538.773,0.0
52566.0,STARLINK-3938,PAYLOAD,2023-10-29 13:21:16,15.08864314,0.0001651,53.2175,44.3871,80.6624,279.4555,0.00057634,8.902e-05,0.0,0 STARLINK-3938,1 52566U 22051AK  23302.55644317  .00008902  00000-0  57634-3 0  9996,2 52566  53.2175  44.3871 0001651  80.6624 279.4555 15.08864314 81292,6917.806,95.436,540.813,538.529,0.0
52566.0,STARLINK-3938,PAYLOAD,2023-10-30 06:50:31,15.08843135,0.0001252,53.2175,41.119,75.0148,285.0983,0.00026158,3.878e-05,0.0,0 STARLINK-3938,1 52566U 22051AK  23303.28509052  .00003878  00000-0  26158-3 0  9997,2 52566  53.2175  41.1190 0001252  75.0148 285.0983 15.08843135 81406,6917.871,95.437,540.602,538.87,0.0
52566.0,STARLINK-3938,PAYLOAD,2023-10-30 16:22:50,15.08835505,0.0001675,53.2181,39.3324,91.3118,268.8066,-3.2138e-05,-7.99e-06,0.0,0 STARLINK-3938,1 52566U 22051AK  23303.68253325 -.00000799  00000-0 -32138-4 0  9997,2 52566  53.2181  39.3324 0001675  91.3118 268.8066 15.08835505 81467,6917.894,95.438,540.918,538.6,0.0
52566.0,STARLINK-3938,PAYLOAD,2023-10-31 13:02:51,15.08839025,0.0001598,53.2176,35.4667,86.4283,273.6892,0.00019984,2.894e-05,0.0,0 STARLINK-3938,1 52566U 22051AK  23304.54365720  .00002894  00000-0  19984-3 0  9995,2 52566  53.2176  35.4667 0001598  86.4283 273.6892 15.08839025 81529,6917.883,95.438,540.854,538.643,0.0
52566.0,STARLINK-3938,PAYLOAD,2023-10-31 22:35:10,15.08837368,0.00019,53.2188,33.6831,74.5328,285.5874,0.00028729,4.287e-05,0.0,0 STARLINK-3938,1 52566U 22051AK  23304.94109891  .00004287  00000-0  28729-3 0  9999,2 52566  53.2188  33.6831 0001900  74.5328 285.5874 15.08837368 81654,6917.888,95.438,541.068,538.439,0.0
52566.0,STARLINK-3938,PAYLOAD,2023-11-01 12:53:38,15.08852696,0.0001406,53.2189,31.0061,83.5842,276.531,0.00053054,8.169e-05,0.0,0 STARLINK-3938,1 52566U 22051AK  23305.53725463  .00008169  00000-0  53054-3 0  9996,2 52566  53.2189  31.0061 0001406  83.5842 276.5310 15.08852696 81672,6917.842,95.437,540.679,538.734,0.0
52566.0,STARLINK-3938,PAYLOAD,2023-11-01 22:25:58,15.08843716,0.0001581,53.219,29.222,82.6592,277.458,0.00025852,3.829e-05,0.0,0 STARLINK-3938,1 52566U 22051AK  23305.93469949  .00003829  00000-0  25852-3 0  9997,2 52566  53.2190  29.2220 0001581  82.6592 277.4580 15.08843716 81735,6917.869,95.437,540.828,538.64,0.0
52566.0,STARLINK-3938,PAYLOAD,2023-11-02 04:47:30,15.08842919,0.0001832,53.2184,28.0325,84.2251,275.895,0.00022561,3.305e-05,0.0,0 STARLINK-3938,1 52566U 22051AK  23306.19966099  .00003305  00000-0  22561-3 0  9997,2 52566  53.2184  28.0325 0001832  84.2251 275.8950 15.08842919 81849,6917.871,95.437,541.004,538.469,0.0
52566.0,STARLINK-3938,PAYLOAD,2023-11-02 12:44:25,15.08861627,0.0001446,53.2185,26.5458,80.8286,279.2869,0.00074502,0.00011596,0.0,0 STARLINK-3938,1 52566U 22051AK  23306.53085385  .00011596  00000-0  74502-3 0  9998,2 52566  53.2185  26.5458 0001446  80.8286 279.2869 15.08861627 81890,6917.814,95.436,540.68,538.679,0.0
